OBJECT_NAME,OBJECT_ID,EPOCH,MEAN_MOTION,ECCENTRICITY,INCLINATION,RA_OF_ASC_NODE,ARG_OF_PERICENTER,MEAN_ANOMALY,EPHEMERIS_TYPE,CLASSIFICATION_TYPE,NORAD_CAT_ID,ELEMENT_SET_NO,REV_AT_EPOCH,BSTAR,MEAN_MOTION_DOT,MEAN_MOTION_DDOT
KUIPER-00595,2026-118P,2026-06-14T10:53:59.430912,15.38494464,.0001785,51.8724,66.3661,126.6970,233.4182,0,U,69280,999,359,.44514E-3,.1682E-3,0
KUIPER-00596,2026-118Q,2026-06-14T10:01:05.818944,15.34826974,.0011786,51.8554,66.8539,180.0560,180.0426,0,U,69281,999,355,-.28332E-2,-.96529E-3,0
KUIPER-00597,2026-118R,2026-06-14T08:06:41.376096,15.36965032,.0007037,51.8651,67.0858,160.3731,199.7527,0,U,69282,999,354,.62669E-3,.22705E-3,0
KUIPER-00599,2026-118S,2026-06-14T08:03:27.554112,15.37325515,.0006146,51.8702,67.0724,152.6502,207.4809,0,U,69283,999,354,.62618E-3,.22952E-3,0
KUIPER-00600,2026-118T,2026-06-14T08:11:58.688736,15.36671976,.0008898,51.8646,67.1084,162.8233,197.3056,0,U,69284,999,354,.75356E-3,.27148E-3,0
KUIPER-00601,2026-118U,2026-06-14T07:59:12.880608,15.37595557,.0004723,51.8713,67.0516,143.5129,216.6181,0,U,69285,999,354,.65491E-3,.24235E-3,0
KUIPER-00602,2026-118V,2026-06-14T07:52:08.743008,15.38119750,.0002879,51.8712,67.0212,131.4718,228.6517,0,U,69286,999,354,.57197E-3,.21472E-3,0
KUIPER-00603,2026-118W,2026-06-14T08:00:51.304032,15.37511288,.0005164,51.8682,67.0615,145.9002,214.2317,0,U,69287,999,354,.75801E-3,.28051E-3,0
KUIPER-00605,2026-118X,2026-06-14T08:07:40.718208,15.36989203,.0007586,51.8667,67.0904,156.0700,204.0641,0,U,69288,999,354,.4359E-3,.15672E-3,0
KUIPER-00606,2026-118Y,2026-06-14T11:04:43.578336,15.37695420,.0004728,51.8705,66.4157,141.1462,218.9866,0,U,69289,999,356,.44951E-3,.16548E-3,0
KUIPER-00607,2026-118Z,2026-06-14T12:43:00.488064,15.37386318,.0006181,51.8689,66.1229,152.3851,207.7465,0,U,69290,999,357,.63748E-3,.23421E-3,0
KUIPER-00608,2026-118AA,2026-06-14T06:46:21.132192,15.35332104,.0009265,51.8605,67.4545,165.4614,194.6639,0,U,69291,999,353,.14946E-3,.483E-4,0
KUIPER-00610,2026-118AB,2026-06-14T10:56:43.308384,15.38329965,.000277,51.8735,66.3750,130.2185,229.9045,0,U,69292,999,356,.64718E-3,.24526E-3,0
KUIPER-00613,2026-118AC,2026-06-14T08:26:11.486112,15.35127948,.0010262,51.8630,67.1711,174.4548,185.6553,0,U,69293,999,354,.56938E-3,.19404E-3,0
KUIPER-00618,2026-118AD,2026-06-14T12:25:18.275232,15.38588102,.0001791,51.8732,66.0378,82.8795,277.2395,0,U,69294,999,357,.60358E-3,.23037E-3,0
KUIPER-00620,2026-118AE,2026-06-14T10:55:45.429024,15.38252640,.0002904,51.8731,66.3723,113.9051,246.2240,0,U,69295,999,356,.53238E-3,.20042E-3,0
STARLINK-37501,2026-119A,2026-06-14T05:40:19.173792,15.79142289,.0002229,97.2824,190.9014,359.4746,0.6519,0,U,69296,999,357,-.26579E-2,-.44861E-2,0
STARLINK-37496,2026-119B,2026-06-14T05:40:50.436768,15.79789532,.0000898,97.2827,190.9008,75.1195,285.0172,0,U,69297,999,357,-.71873E-3,-.12959E-2,0
STARLINK-37519,2026-119C,2026-06-14T12:00:02.998944,15.74900131,.0001068,97.2842,191.1897,84.4942,357.8421,0,U,69298,999,345,-.96234E-2,-.1273344E-1,0
STARLINK-37455,2026-119D,2026-06-12T14:07:06.079584,15.79682093,.00040545,97.2829,189.1634,36.6104,323.5440,0,U,69299,999,331,-.14431533E-2,-.255334E-2,0
STARLINK-37456,2026-119E,2026-06-14T12:00:02.998944,15.76160264,.0001696,97.2843,191.1900,84.5210,1.9895,0,U,69300,999,345,-.1114E-1,-.1523815E-1,0
STARLINK-37630,2026-119F,2026-06-14T12:00:02.998944,15.58272101,.0001529,97.2844,191.1237,96.1127,190.5781,0,U,69301,999,361,-.18412E-1,-.1245043E-1,0
STARLINK-37804,2026-119G,2026-06-14T12:00:02.998944,15.58827051,.0001573,97.2838,191.1274,106.2770,186.5776,0,U,69302,999,361,-.35877E-1,-.2421311E-1,0
STARLINK-37730,2026-119H,2026-06-14T11:32:21.698016,15.80879129,.0001394,97.2819,191.1809,150.6676,209.4670,0,U,69303,999,361,.68964E-3,.134398E-2,0
STARLINK-37731,2026-119J,2026-06-14T12:00:02.998944,15.57706112,.0001715,97.2840,191.1265,104.9481,188.3586,0,U,69304,999,361,-.37172E-1,-.2406686E-1,0
STARLINK-37734,2026-119K,2026-06-14T12:00:02.998944,15.74842135,.0002296,97.2836,191.1961,90.7291,10.3989,0,U,69305,999,361,-.16673E-1,-.2147588E-1,0
STARLINK-37701,2026-119L,2026-06-14T11:30:26.557920,15.80957589,.0001988,97.2820,191.1821,176.0682,184.0602,0,U,69306,999,361,.10163E-2,.200361E-2,0
STARLINK-37732,2026-119M,2026-06-14T11:29:51.990144,15.80882447,.0001153,97.2816,191.1840,88.1585,271.9815,0,U,69307,999,361,.84506E-3,.16533E-2,0
STARLINK-37689,2026-119N,2026-06-14T12:00:02.998944,15.58081864,.0001444,97.2847,191.1342,105.8251,203.7458,0,U,69308,999,361,-.35886E-1,-.2362591E-1,0
STARLINK-37619,2026-119P,2026-06-14T11:27:24.184800,15.80880819,.0001173,97.2820,191.1858,99.0968,261.0433,0,U,69309,999,361,.79907E-3,.156149E-2,0
