KUIPER-00595            
1 69280U 26118P   26165.45416008  .00016820  00000+0  44514-3 0  9998
2 69280  51.8724  66.3661 0001785 126.6970 233.4182 15.38494464  3592
KUIPER-00596            
1 69281U 26118Q   26165.41742846 -.00096529  00000+0 -28332-2 0  9992
2 69281  51.8554  66.8539 0011786 180.0560 180.0426 15.34826974  3559
KUIPER-00597            
1 69282U 26118R   26165.33797889  .00022705  00000+0  62669-3 0  9996
2 69282  51.8651  67.0858 0007037 160.3731 199.7527 15.36965032  3549
KUIPER-00599            
1 69283U 26118S   26165.33573558  .00022952  00000+0  62618-3 0  9990
2 69283  51.8702  67.0724 0006146 152.6502 207.4809 15.37325515  3546
KUIPER-00600            
1 69284U 26118T   26165.34165149  .00027148  00000+0  75356-3 0  9990
2 69284  51.8646  67.1084 0008898 162.8233 197.3056 15.36671976  3549
KUIPER-00601            
1 69285U 26118U   26165.33278797  .00024235  00000+0  65491-3 0  9997
2 69285  51.8713  67.0516 0004723 143.5129 216.6181 15.37595557  3542
KUIPER-00602            
1 69286U 26118V   26165.32787897  .00021472  00000+0  57197-3 0  9997
2 69286  51.8712  67.0212 0002879 131.4718 228.6517 15.38119750  3549
KUIPER-00603            
1 69287U 26118W   26165.33392713  .00028051  00000+0  75801-3 0  9990
2 69287  51.8682  67.0615 0005164 145.9002 214.2317 15.37511288  3549
KUIPER-00605            
1 69288U 26118X   26165.33866572  .00015672  00000+0  43590-3 0  9995
2 69288  51.8667  67.0904 0007586 156.0700 204.0641 15.36989203  3544
KUIPER-00606            
1 69289U 26118Y   26165.46161549  .00016548  00000+0  44951-3 0  9997
2 69289  51.8705  66.4157 0004728 141.1462 218.9866 15.37695420  3567
KUIPER-00607            
1 69290U 26118Z   26165.52986676  .00023421  00000+0  63748-3 0  9995
2 69290  51.8689  66.1229 0006181 152.3851 207.7465 15.37386318  3573
KUIPER-00608            
1 69291U 26118AA  26165.28218903  .00004830  00000+0  14946-3 0  9999
2 69291  51.8605  67.4545 0009265 165.4614 194.6639 15.35332104  3530
KUIPER-00610            
1 69292U 26118AB  26165.45605681  .00024526  00000+0  64718-3 0  9998
2 69292  51.8735  66.3750 0002770 130.2185 229.9045 15.38329965  3568
KUIPER-00613            
1 69293U 26118AC  26165.35152183  .00019404  00000+0  56938-3 0  9996
2 69293  51.8630  67.1711 0010262 174.4548 185.6553 15.35127948  3541
KUIPER-00618            
1 69294U 26118AD  26165.51757263  .00023037  00000+0  60358-3 0  9993
2 69294  51.8732  66.0378 0001791  82.8795 277.2395 15.38588102  3576
KUIPER-00620            
1 69295U 26118AE  26165.45538691  .00020042  00000+0  53238-3 0  9991
2 69295  51.8731  66.3723 0002904 113.9051 246.2240 15.38252640  3560
STARLINK-37501          
1 69296U 26119A   26165.23633303 -.00448610  00000+0 -26579-2 0  9999
2 69296  97.2824 190.9014 0002229 359.4746   0.6519 15.79142289  3577
STARLINK-37496          
1 69297U 26119B   26165.23669487 -.00129590  00000+0 -71873-3 0  9993
2 69297  97.2827 190.9008 0000898  75.1195 285.0172 15.79789532  3576
STARLINK-37519          
1 69298U 26119C   26165.50003471 -.01273344  00000+0 -96234-2 0  9994
2 69298  97.2842 191.1897 0001068  84.4942 357.8421 15.74900131  3453
STARLINK-37455          
1 69299U 26119D   26163.58826481 -.00255334  00000+0 -14432-2 0  9993
2 69299  97.2829 189.1634 0004054  36.6104 323.5440 15.79682093  3317
STARLINK-37456          
1 69300U 26119E   26165.50003471 -.01523815  00000+0 -11140-1 0  9991
2 69300  97.2843 191.1900 0001696  84.5210   1.9895 15.76160264  3458
STARLINK-37630          
1 69301U 26119F   26165.50003471 -.01245043  00000+0 -18412-1 0  9995
2 69301  97.2844 191.1237 0001529  96.1127 190.5781 15.58272101  3615
STARLINK-37804          
1 69302U 26119G   26165.50003471 -.02421311  00000+0 -35877-1 0  9995
2 69302  97.2838 191.1274 0001573 106.2770 186.5776 15.58827051  3615
STARLINK-37730          
1 69303U 26119H   26165.48080669  .00134398  00000+0  68964-3 0  9994
2 69303  97.2819 191.1809 0001394 150.6676 209.4670 15.80879129  3614
STARLINK-37731          
1 69304U 26119J   26165.50003471 -.02406686  00000+0 -37172-1 0  9995
2 69304  97.2840 191.1265 0001715 104.9481 188.3586 15.57706112  3614
STARLINK-37734          
1 69305U 26119K   26165.50003471 -.02147588  00000+0 -16673-1 0  9992
2 69305  97.2836 191.1961 0002296  90.7291  10.3989 15.74842135  3615
STARLINK-37701          
1 69306U 26119L   26165.47947405  .00200361  00000+0  10163-2 0  9997
2 69306  97.2820 191.1821 0001988 176.0682 184.0602 15.80957589  3611
STARLINK-37732          
1 69307U 26119M   26165.47907396  .00165330  00000+0  84506-3 0  9992
2 69307  97.2816 191.1840 0001153  88.1585 271.9815 15.80882447  3619
STARLINK-37689          
1 69308U 26119N   26165.50003471 -.02362591  00000+0 -35886-1 0  9995
2 69308  97.2847 191.1342 0001444 105.8251 203.7458 15.58081864  3616
STARLINK-37619          
1 69309U 26119P   26165.47736325  .00156149  00000+0  79907-3 0  9993
2 69309  97.2820 191.1858 0001173  99.0968 261.0433 15.80880819  3610
